CCSDS_OMM_VERS = 2.0
CREATION_DATE  = 
ORIGINATOR     = 

OBJECT_NAME    = COSMOS 2058
OBJECT_ID      = 1990-010A
CENTER_NAME    = EARTH
REF_FRAME      = TEME
TIME_SYSTEM    = UTC
MEAN_ELEMENT_THEORY = SGP/SGP4

EPOCH          = 2026-03-25T14:29:27.761856
MEAN_MOTION    = 15.11459947
ECCENTRICITY   = .0007428
INCLINATION    = 82.4683
RA_OF_ASC_NODE = 31.7458
ARG_OF_PERICENTER = 282.8865
MEAN_ANOMALY   = 77.1536

EPHEMERIS_TYPE = 0
CLASSIFICATION_TYPE = U
NORAD_CAT_ID   = 20465
ELEMENT_SET_NO = 999
REV_AT_EPOCH   = 94464
BSTAR          = .2701E-3
MEAN_MOTION_DOT = .4597E-4
MEAN_MOTION_DDOT = 0

CCSDS_OMM_VERS = 2.0
CREATION_DATE  = 
ORIGINATOR     = 

OBJECT_NAME    = SL-14 R/B
OBJECT_ID      = 1990-010B
CENTER_NAME    = EARTH
REF_FRAME      = TEME
TIME_SYSTEM    = UTC
MEAN_ELEMENT_THEORY = SGP/SGP4

EPOCH          = 2026-03-25T17:44:20.092416
MEAN_MOTION    = 14.83582918
ECCENTRICITY   = .0018455
INCLINATION    = 82.4992
RA_OF_ASC_NODE = 252.3083
ARG_OF_PERICENTER = 245.2230
MEAN_ANOMALY   = 114.7066

EPHEMERIS_TYPE = 0
CLASSIFICATION_TYPE = U
NORAD_CAT_ID   = 20466
ELEMENT_SET_NO = 999
REV_AT_EPOCH   = 93086
BSTAR          = .56298E-4
MEAN_MOTION_DOT = .488E-5
MEAN_MOTION_DDOT = 0

CCSDS_OMM_VERS = 2.0
CREATION_DATE  = 
ORIGINATOR     = 

OBJECT_NAME    = SL-14 R/B
OBJECT_ID      = 1990-018B
CENTER_NAME    = EARTH
REF_FRAME      = TEME
TIME_SYSTEM    = UTC
MEAN_ELEMENT_THEORY = SGP/SGP4

EPOCH          = 2026-03-25T18:32:11.496192
MEAN_MOTION    = 14.82160450
ECCENTRICITY   = .0017154
INCLINATION    = 82.5233
RA_OF_ASC_NODE = 208.0597
ARG_OF_PERICENTER = 43.0921
MEAN_ANOMALY   = 317.1633

EPHEMERIS_TYPE = 0
CLASSIFICATION_TYPE = U
NORAD_CAT_ID   = 20511
ELEMENT_SET_NO = 999
REV_AT_EPOCH   = 92496
BSTAR          = .54489E-4
MEAN_MOTION_DOT = .458E-5
MEAN_MOTION_DDOT = 0

CCSDS_OMM_VERS = 2.0
CREATION_DATE  = 
ORIGINATOR     = 

OBJECT_NAME    = HST
OBJECT_ID      = 1990-037B
CENTER_NAME    = EARTH
REF_FRAME      = TEME
TIME_SYSTEM    = UTC
MEAN_ELEMENT_THEORY = SGP/SGP4

EPOCH          = 2026-03-25T20:41:52.673280
MEAN_MOTION    = 15.29725007
ECCENTRICITY   = .0001548
INCLINATION    = 28.4721
RA_OF_ASC_NODE = 289.6560
ARG_OF_PERICENTER = 314.8290
MEAN_ANOMALY   = 45.2179

EPHEMERIS_TYPE = 0
CLASSIFICATION_TYPE = U
NORAD_CAT_ID   = 20580
ELEMENT_SET_NO = 999
REV_AT_EPOCH   = 77579
BSTAR          = .21648E-3
MEAN_MOTION_DOT = .6645E-4
MEAN_MOTION_DDOT = 0

CCSDS_OMM_VERS = 2.0
CREATION_DATE  = 
ORIGINATOR     = 

OBJECT_NAME    = SL-16 R/B
OBJECT_ID      = 1990-046B
CENTER_NAME    = EARTH
REF_FRAME      = TEME
TIME_SYSTEM    = UTC
MEAN_ELEMENT_THEORY = SGP/SGP4

EPOCH          = 2026-03-25T17:51:42.665184
MEAN_MOTION    = 14.15013968
ECCENTRICITY   = .0016305
INCLINATION    = 70.9953
RA_OF_ASC_NODE = 264.1936
ARG_OF_PERICENTER = 278.5716
MEAN_ANOMALY   = 81.3559

EPHEMERIS_TYPE = 0
CLASSIFICATION_TYPE = U
NORAD_CAT_ID   = 20625
ELEMENT_SET_NO = 999
REV_AT_EPOCH   = 85066
BSTAR          = .12196E-3
MEAN_MOTION_DOT = .189E-5
MEAN_MOTION_DDOT = 0

CCSDS_OMM_VERS = 2.0
CREATION_DATE  = 
ORIGINATOR     = 

OBJECT_NAME    = COSMOS 2084
OBJECT_ID      = 1990-055A
CENTER_NAME    = EARTH
REF_FRAME      = TEME
TIME_SYSTEM    = UTC
MEAN_ELEMENT_THEORY = SGP/SGP4

EPOCH          = 2026-03-25T19:03:03.381696
MEAN_MOTION    = 15.05735426
ECCENTRICITY   = .0014551
INCLINATION    = 62.7893
RA_OF_ASC_NODE = 280.6480
ARG_OF_PERICENTER = 194.8147
MEAN_ANOMALY   = 165.2529

EPHEMERIS_TYPE = 0
CLASSIFICATION_TYPE = U
NORAD_CAT_ID   = 20663
ELEMENT_SET_NO = 999
REV_AT_EPOCH   = 93874
BSTAR          = .17275E-3
MEAN_MOTION_DOT = .2315E-4
MEAN_MOTION_DDOT = 0

CCSDS_OMM_VERS = 2.0
CREATION_DATE  = 
ORIGINATOR     = 

OBJECT_NAME    = SL-6 R/B(2)
OBJECT_ID      = 1990-055D
CENTER_NAME    = EARTH
REF_FRAME      = TEME
TIME_SYSTEM    = UTC
MEAN_ELEMENT_THEORY = SGP/SGP4

EPOCH          = 2026-03-25T15:58:19.268256
MEAN_MOTION    = 15.03670271
ECCENTRICITY   = .0027414
INCLINATION    = 62.7831
RA_OF_ASC_NODE = 199.5182
ARG_OF_PERICENTER = 350.7374
MEAN_ANOMALY   = 9.3216

EPHEMERIS_TYPE = 0
CLASSIFICATION_TYPE = U
NORAD_CAT_ID   = 20666
ELEMENT_SET_NO = 999
REV_AT_EPOCH   = 94059
BSTAR          = .1606E-3
MEAN_MOTION_DOT = .2025E-4
MEAN_MOTION_DDOT = 0

CCSDS_OMM_VERS = 2.0
CREATION_DATE  = 
ORIGINATOR     = 

OBJECT_NAME    = SL-8 R/B
OBJECT_ID      = 1990-078B
CENTER_NAME    = EARTH
REF_FRAME      = TEME
TIME_SYSTEM    = UTC
MEAN_ELEMENT_THEORY = SGP/SGP4

EPOCH          = 2026-03-25T16:47:48.247872
MEAN_MOTION    = 14.89552769
ECCENTRICITY   = .0358987
INCLINATION    = 82.9019
RA_OF_ASC_NODE = 236.9037
ARG_OF_PERICENTER = 320.0360
MEAN_ANOMALY   = 37.4924

EPHEMERIS_TYPE = 0
CLASSIFICATION_TYPE = U
NORAD_CAT_ID   = 20775
ELEMENT_SET_NO = 999
REV_AT_EPOCH   = 81168
BSTAR          = .41001E-3
MEAN_MOTION_DOT = .1385E-3
MEAN_MOTION_DDOT = 0

CCSDS_OMM_VERS = 2.0
CREATION_DATE  = 
ORIGINATOR     = 

OBJECT_NAME    = SL-8 R/B
OBJECT_ID      = 1991-006B
CENTER_NAME    = EARTH
REF_FRAME      = TEME
TIME_SYSTEM    = UTC
MEAN_ELEMENT_THEORY = SGP/SGP4

EPOCH          = 2026-03-25T15:02:33.106848
MEAN_MOTION    = 13.77496589
ECCENTRICITY   = .0022057
INCLINATION    = 82.9451
RA_OF_ASC_NODE = 158.1977
ARG_OF_PERICENTER = 354.2912
MEAN_ANOMALY   = 177.8199

EPHEMERIS_TYPE = 0
CLASSIFICATION_TYPE = U
NORAD_CAT_ID   = 21088
ELEMENT_SET_NO = 999
REV_AT_EPOCH   = 76626
BSTAR          = .68073E-4
MEAN_MOTION_DOT = .83E-6
MEAN_MOTION_DDOT = 0

CCSDS_OMM_VERS = 2.0
CREATION_DATE  = 
ORIGINATOR     = 

OBJECT_NAME    = OKEAN-3
OBJECT_ID      = 1991-039A
CENTER_NAME    = EARTH
REF_FRAME      = TEME
TIME_SYSTEM    = UTC
MEAN_ELEMENT_THEORY = SGP/SGP4

EPOCH          = 2026-03-25T20:05:04.581312
MEAN_MOTION    = 15.04899160
ECCENTRICITY   = .0012342
INCLINATION    = 82.5166
RA_OF_ASC_NODE = 321.1994
ARG_OF_PERICENTER = 276.8446
MEAN_ANOMALY   = 83.1376

EPHEMERIS_TYPE = 0
CLASSIFICATION_TYPE = U
NORAD_CAT_ID   = 21397
ELEMENT_SET_NO = 999
REV_AT_EPOCH   = 86746
BSTAR          = .13376E-3
MEAN_MOTION_DOT = .1923E-4
MEAN_MOTION_DDOT = 0

CCSDS_OMM_VERS = 2.0
CREATION_DATE  = 
ORIGINATOR     = 

OBJECT_NAME    = COSMOS 2151
OBJECT_ID      = 1991-042A
CENTER_NAME    = EARTH
REF_FRAME      = TEME
TIME_SYSTEM    = UTC
MEAN_ELEMENT_THEORY = SGP/SGP4

EPOCH          = 2026-03-25T19:48:25.206336
MEAN_MOTION    = 15.00169639
ECCENTRICITY   = .0012765
INCLINATION    = 82.4941
RA_OF_ASC_NODE = 68.1062
ARG_OF_PERICENTER = 13.3249
MEAN_ANOMALY   = 346.8310

EPHEMERIS_TYPE = 0
CLASSIFICATION_TYPE = U
NORAD_CAT_ID   = 21422
ELEMENT_SET_NO = 999
REV_AT_EPOCH   = 86561
BSTAR          = .18043E-3
MEAN_MOTION_DOT = .2283E-4
MEAN_MOTION_DDOT = 0

CCSDS_OMM_VERS = 2.0
CREATION_DATE  = 
ORIGINATOR     = 

OBJECT_NAME    = SL-14 R/B
OBJECT_ID      = 1991-042B
CENTER_NAME    = EARTH
REF_FRAME      = TEME
TIME_SYSTEM    = UTC
MEAN_ELEMENT_THEORY = SGP/SGP4

EPOCH          = 2026-03-25T18:16:14.589408
MEAN_MOTION    = 14.81845281
ECCENTRICITY   = .0016948
INCLINATION    = 82.4952
RA_OF_ASC_NODE = 205.1141
ARG_OF_PERICENTER = 183.4211
MEAN_ANOMALY   = 176.6890

EPHEMERIS_TYPE = 0
CLASSIFICATION_TYPE = U
NORAD_CAT_ID   = 21423
ELEMENT_SET_NO = 999
REV_AT_EPOCH   = 85545
BSTAR          = .57129E-4
MEAN_MOTION_DOT = .476E-5
MEAN_MOTION_DDOT = 0

