COSMOS 2058             
1 20465U 90010A   26084.60379354  .00004597  00000+0  27010-3 0  9991
2 20465  82.4683  31.7458 0007428 282.8865  77.1536 15.11459947944640
SL-14 R/B               
1 20466U 90010B   26084.73912144  .00000488  00000+0  56298-4 0  9992
2 20466  82.4992 252.3083 0018455 245.2230 114.7066 14.83582918930868
SL-14 R/B               
1 20511U 90018B   26084.77235528  .00000458  00000+0  54489-4 0  9996
2 20511  82.5233 208.0597 0017154  43.0921 317.1633 14.82160450924967
HST                     
1 20580U 90037B   26084.86241520  .00006645  00000+0  21648-3 0  9996
2 20580  28.4721 289.6560 0001548 314.8290  45.2179 15.29725007775793
SL-16 R/B               
1 20625U 90046B   26084.74424381  .00000189  00000+0  12196-3 0  9996
2 20625  70.9953 264.1936 0016305 278.5716  81.3559 14.15013968850666
COSMOS 2084             
1 20663U 90055A   26084.79378914  .00002315  00000+0  17275-3 0  9999
2 20663  62.7893 280.6480 0014551 194.8147 165.2529 15.05735426938741
SL-6 R/B(2)             
1 20666U 90055D   26084.66550079  .00002025  00000+0  16060-3 0  9991
2 20666  62.7831 199.5182 0027414 350.7374   9.3216 15.03670271940591
SL-8 R/B                
1 20775U 90078B   26084.69986398  .00013850  00000+0  41001-3 0  9998
2 20775  82.9019 236.9037 0358987 320.0360  37.4924 14.89552769811685
SL-8 R/B                
1 21088U 91006B   26084.62677207  .00000083  00000+0  68073-4 0  9990
2 21088  82.9451 158.1977 0022057 354.2912 177.8199 13.77496589766268
OKEAN-3                 
1 21397U 91039A   26084.83685858  .00001923  00000+0  13376-3 0  9992
2 21397  82.5166 321.1994 0012342 276.8446  83.1376 15.04899160867462
COSMOS 2151             
1 21422U 91042A   26084.82529174  .00002283  00000+0  18043-3 0  9998
2 21422  82.4941  68.1062 0012765  13.3249 346.8310 15.00169639865618
SL-14 R/B               
1 21423U 91042B   26084.76127997  .00000476  00000+0  57129-4 0  9990
2 21423  82.4952 205.1141 0016948 183.4211 176.6890 14.81845281855452
